{
  "type": "FeatureCollection",
  "features": [
    {
      "type": "Feature",
      "properties": {
        "norad_id": 35000,
        "name": "COSMOS 2251 DEB",
        "group": "cosmos-2251-debris",
        "lat": -2.0299120607678307,
        "lon": -167.54720975956062,
        "alt_km": 237.65362332762197,
        "timestamp": "2025-12-14T18:52:55.899101+00:00",
        "meta_object_name": "COSMOS 2251 DEB",
        "meta_object_id": "1993-036AFY",
        "meta_epoch": "2025-12-10T00:39:45.535104",
        "meta_mean_motion": 15.84722247,
        "meta_eccentricity": 0.00096992,
        "meta_inclination": 73.9939,
        "meta_ra_of_asc_node": 204.1935,
        "meta_arg_of_pericenter": 175.3945,
        "meta_mean_anomaly": 184.7377,
        "meta_ephemeris_type": 0,
        "meta_classification_type": "U",
        "meta_norad_cat_id": 35000,
        "meta_element_set_no": 999,
        "meta_rev_at_epoch": 88472,
        "meta_bstar": 0.007821664,
        "meta_mean_motion_dot": 0.0209211,
        "meta_mean_motion_ddot": 0,
        "tle_line1": "1 35000U 93036AFY 25344.02761036  .02092110  00000+0  78217-2 0  9993",
        "tle_line2": "2 35000  73.9939 204.1935 0009699 175.3945 184.7377 15.84722247884729"
      },
      "geometry": {
        "type": "Point",
        "coordinates": [
          -167.54720975956062,
          -2.0299120607678307
        ]
      }
    },
    {
      "type": "Feature",
      "properties": {
        "norad_id": 35012,
        "name": "COSMOS 2251 DEB",
        "group": "cosmos-2251-debris",
        "lat": -74.00829983656013,
        "lon": 16.89658703796328,
        "alt_km": 693.2431898017867,
        "timestamp": "2025-12-14T18:52:55.899112+00:00",
        "meta_object_name": "COSMOS 2251 DEB",
        "meta_object_id": "1993-036AFZ",
        "meta_epoch": "2025-12-13T08:25:01.518528",
        "meta_mean_motion": 14.45550453,
        "meta_eccentricity": 0.0081657,
        "meta_inclination": 74.0206,
        "meta_ra_of_asc_node": 110.5964,
        "meta_arg_of_pericenter": 250.6394,
        "meta_mean_anomaly": 108.5923,
        "meta_ephemeris_type": 0,
        "meta_classification_type": "U",
        "meta_norad_cat_id": 35012,
        "meta_element_set_no": 999,
        "meta_rev_at_epoch": 87570,
        "meta_bstar": 0.00029402698,
        "meta_mean_motion_dot": 1.052e-05,
        "meta_mean_motion_ddot": 0,
        "tle_line1": "1 35012U 93036AFZ 25347.35071202  .00001052  00000+0  29403-3 0  9991",
        "tle_line2": "2 35012  74.0206 110.5964 0081657 250.6394 108.5923 14.45550453875705"
      },
      "geometry": {
        "type": "Point",
        "coordinates": [
          16.89658703796328,
          -74.00829983656013
        ]
      }
    },
    {
      "type": "Feature",
      "properties": {
        "norad_id": 35014,
        "name": "COSMOS 2251 DEB",
        "group": "cosmos-2251-debris",
        "lat": -51.42223840530265,
        "lon": -119.38554943531214,
        "alt_km": 645.9832774319093,
        "timestamp": "2025-12-14T18:52:55.899123+00:00",
        "meta_object_name": "COSMOS 2251 DEB",
        "meta_object_id": "1993-036AGB",
        "meta_epoch": "2025-12-10T11:17:04.408224",
        "meta_mean_motion": 14.75108648,
        "meta_eccentricity": 0.0007489,
        "meta_inclination": 73.9993,
        "meta_ra_of_asc_node": 47.9831,
        "meta_arg_of_pericenter": 224.1256,
        "meta_mean_anomaly": 135.932,
        "meta_ephemeris_type": 0,
        "meta_classification_type": "U",
        "meta_norad_cat_id": 35014,
        "meta_element_set_no": 999,
        "meta_rev_at_epoch": 71303,
        "meta_bstar": 0.0024781418,
        "meta_mean_motion_dot": 0.00016732,
        "meta_mean_motion_ddot": 0,
        "tle_line1": "1 35014U 93036AGB 25344.47018991  .00016732  00000+0  24781-2 0  9993",
        "tle_line2": "2 35014  73.9993  47.9831 0007489 224.1256 135.9320 14.75108648713038"
      },
      "geometry": {
        "type": "Point",
        "coordinates": [
          -119.38554943531214,
          -51.42223840530265
        ]
      }
    },
    {
      "type": "Feature",
      "properties": {
        "norad_id": 35015,
        "name": "COSMOS 2251 DEB",
        "group": "cosmos-2251-debris",
        "lat": 51.195169316706746,
        "lon": -108.13554127568933,
        "alt_km": 693.3610022945186,
        "timestamp": "2025-12-14T18:52:55.899133+00:00",
        "meta_object_name": "COSMOS 2251 DEB",
        "meta_object_id": "1993-036AGC",
        "meta_epoch": "2025-12-08T23:19:05.687904",
        "meta_mean_motion": 14.46841193,
        "meta_eccentricity": 0.0074204,
        "meta_inclination": 73.9478,
        "meta_ra_of_asc_node": 241.8046,
        "meta_arg_of_pericenter": 111.6456,
        "meta_mean_anomaly": 265.9615,
        "meta_ephemeris_type": 0,
        "meta_classification_type": "U",
        "meta_norad_cat_id": 35015,
        "meta_element_set_no": 999,
        "meta_rev_at_epoch": 65386,
        "meta_bstar": 0.00095869,
        "meta_mean_motion_dot": 3.57e-05,
        "meta_mean_motion_ddot": 0,
        "tle_line1": "1 35015U 93036AGC 25342.97159361  .00003570  00000+0  95869-3 0  9996",
        "tle_line2": "2 35015  73.9478 241.8046 0074204 111.6456 265.9615 14.46841193653863"
      },
      "geometry": {
        "type": "Point",
        "coordinates": [
          -108.13554127568933,
          51.195169316706746
        ]
      }
    },
    {
      "type": "Feature",
      "properties": {
        "norad_id": 35016,
        "name": "COSMOS 2251 DEB",
        "group": "cosmos-2251-debris",
        "lat": -9.052060495031984,
        "lon": -71.98574758986719,
        "alt_km": 844.0636673379995,
        "timestamp": "2025-12-14T18:52:55.899144+00:00",
        "meta_object_name": "COSMOS 2251 DEB",
        "meta_object_id": "1993-036AGD",
        "meta_epoch": "2025-12-12T14:13:37.756704",
        "meta_mean_motion": 14.35060321,
        "meta_eccentricity": 0.01145219,
        "meta_inclination": 73.9299,
        "meta_ra_of_asc_node": 294.6934,
        "meta_arg_of_pericenter": 211.7131,
        "meta_mean_anomaly": 328.2097,
        "meta_ephemeris_type": 0,
        "meta_classification_type": "U",
        "meta_norad_cat_id": 35016,
        "meta_element_set_no": 999,
        "meta_rev_at_epoch": 86780,
        "meta_bstar": 0.00052896522,
        "meta_mean_motion_dot": 1.596e-05,
        "meta_mean_motion_ddot": 0,
        "tle_line1": "1 35016U 93036AGD 25346.59279811  .00001596  00000+0  52897-3 0  9992",
        "tle_line2": "2 35016  73.9299 294.6934 0114521 211.7131 328.2097 14.35060321867808"
      },
      "geometry": {
        "type": "Point",
        "coordinates": [
          -71.98574758986719,
          -9.052060495031984
        ]
      }
    },
    {
      "type": "Feature",
      "properties": {
        "norad_id": 35018,
        "name": "COSMOS 2251 DEB",
        "group": "cosmos-2251-debris",
        "lat": -51.347333763282535,
        "lon": 85.55415366744893,
        "alt_km": 919.2337806360056,
        "timestamp": "2025-12-14T18:52:55.899154+00:00",
        "meta_object_name": "COSMOS 2251 DEB",
        "meta_object_id": "1993-036AGF",
        "meta_epoch": "2025-12-11T15:37:13.751904",
        "meta_mean_motion": 13.67111419,
        "meta_eccentricity": 0.03485154,
        "meta_inclination": 73.9756,
        "meta_ra_of_asc_node": 111.7752,
        "meta_arg_of_pericenter": 21.1953,
        "meta_mean_anomaly": 340.32,
        "meta_ephemeris_type": 0,
        "meta_classification_type": "U",
        "meta_norad_cat_id": 35018,
        "meta_element_set_no": 999,
        "meta_rev_at_epoch": 83171,
        "meta_bstar": 0.0010764193,
        "meta_mean_motion_dot": 1.351e-05,
        "meta_mean_motion_ddot": 0,
        "tle_line1": "1 35018U 93036AGF 25345.65085361  .00001351  00000+0  10764-2 0  9990",
        "tle_line2": "2 35018  73.9756 111.7752 0348515  21.1953 340.3200 13.67111419831713"
      },
      "geometry": {
        "type": "Point",
        "coordinates": [
          85.55415366744893,
          -51.347333763282535
        ]
      }
    },
    {
      "type": "Feature",
      "properties": {
        "norad_id": 35020,
        "name": "COSMOS 2251 DEB",
        "group": "cosmos-2251-debris",
        "lat": -65.1091151140905,
        "lon": 156.96352702429425,
        "alt_km": 630.1204727619597,
        "timestamp": "2025-12-14T18:52:55.899164+00:00",
        "meta_object_name": "COSMOS 2251 DEB",
        "meta_object_id": "1993-036AGH",
        "meta_epoch": "2025-12-13T23:30:11.436192",
        "meta_mean_motion": 14.62807678,
        "meta_eccentricity": 0.00911998,
        "meta_inclination": 74.0461,
        "meta_ra_of_asc_node": 196.573,
        "meta_arg_of_pericenter": 310.4261,
        "meta_mean_anomaly": 48.8974,
        "meta_ephemeris_type": 0,
        "meta_classification_type": "U",
        "meta_norad_cat_id": 35020,
        "meta_element_set_no": 999,
        "meta_rev_at_epoch": 88256,
        "meta_bstar": 0.00019069928,
        "meta_mean_motion_dot": 9.99e-06,
        "meta_mean_motion_ddot": 0,
        "tle_line1": "1 35020U 93036AGH 25347.97929903  .00000999  00000+0  19070-3 0  9996",
        "tle_line2": "2 35020  74.0461 196.5730 0091199 310.4261  48.8974 14.62807678882569"
      },
      "geometry": {
        "type": "Point",
        "coordinates": [
          156.96352702429425,
          -65.1091151140905
        ]
      }
    }
  ]
}